[
    {
        "Altitude(m)": 702773.7990214998,
        "Argument of Periapsis(deg)": 0.006834072711976239,
        "Eccentricity": 0.0,
        "Inclination(deg)": 45.0,
        "Latitude(deg)": 16.271133391389974,
        "Longitude(deg)": -83.57570803428489,
        "Mean Anomaly(deg)": 23.283529988488496,
        "RAAN(deg)": -0.00645116487492236,
        "Satellite Name": "Constellation 1 1",
        "Satellite Number": 1,
        "Semi-Major Axis(m)": 7083131.272910544,
        "Time(s)": 114
    },
    {
        "Altitude(m)": 702775.7085138053,
        "Argument of Periapsis(deg)": 0.006894020718221645,
        "Eccentricity": 0.0,
        "Inclination(deg)": 45.0,
        "Latitude(deg)": 16.31246678204738,
        "Longitude(deg)": -83.53330575520484,
        "Mean Anomaly(deg)": 23.344231128738393,
        "RAAN(deg)": -0.006507754040491855,
        "Satellite Name": "Constellation 1 1",
        "Satellite Number": 1,
        "Semi-Major Axis(m)": 7083131.272910544,
        "Time(s)": 115
    },
    {
        "Altitude(m)": 702777.6345489977,
        "Argument of Periapsis(deg)": 0.006953968724467052,
        "Eccentricity": 0.0,
        "Inclination(deg)": 45.0,
        "Latitude(deg)": 16.35378979478932,
        "Longitude(deg)": -83.49088394052197,
        "Mean Anomaly(deg)": 23.404932268988293,
        "RAAN(deg)": -0.006564343206061349,
        "Satellite Name": "Constellation 1 1",
        "Satellite Number": 1,
        "Semi-Major Axis(m)": 7083131.272910544,
        "Time(s)": 116
    },
    {
        "Altitude(m)": 702779.5771008882,
        "Argument of Periapsis(deg)": 0.007013916730712457,
        "Eccentricity": 0.0,
        "Inclination(deg)": 45.0,
        "Latitude(deg)": 16.395102397555256,
        "Longitude(deg)": -83.4484425347723,
        "Mean Anomaly(deg)": 23.46563340923819,
        "RAAN(deg)": -0.006620932371630844,
        "Satellite Name": "Constellation 1 1",
        "Satellite Number": 1,
        "Semi-Major Axis(m)": 7083131.272910544,
        "Time(s)": 117
    },
    {
        "Altitude(m)": 702781.5361432334,
        "Argument of Periapsis(deg)": 0.007073864736957864,
        "Eccentricity": 0.0,
        "Inclination(deg)": 45.0,
        "Latitude(deg)": 16.4364045582462,
        "Longitude(deg)": -83.40598148246085,
        "Mean Anomaly(deg)": 23.52633454948809,
        "RAAN(deg)": -0.006677521537200338,
        "Satellite Name": "Constellation 1 1",
        "Satellite Number": 1,
        "Semi-Major Axis(m)": 7083131.272910544,
        "Time(s)": 118
    },
    {
        "Altitude(m)": 702783.5116497166,
        "Argument of Periapsis(deg)": 0.0071338127432032696,
        "Eccentricity": 0.0,
        "Inclination(deg)": 45.0,
        "Latitude(deg)": 16.477696244724658,
        "Longitude(deg)": -83.3635008961585,
        "Mean Anomaly(deg)": 23.58703568973799,
        "RAAN(deg)": -0.0067341107027698325,
        "Satellite Name": "Constellation 1 1",
        "Satellite Number": 1,
        "Semi-Major Axis(m)": 7083131.272910544,
        "Time(s)": 119
    },
    {
        "Altitude(m)": 702785.5035939622,
        "Argument of Periapsis(deg)": 0.007193760749448674,
        "Eccentricity": 0.0,
        "Inclination(deg)": 45.0,
        "Latitude(deg)": 16.518977424814416,
        "Longitude(deg)": -83.32100038411434,
        "Mean Anomaly(deg)": 23.64773682998789,
        "RAAN(deg)": -0.0067906998683393265,
        "Satellite Name": "Constellation 1 1",
        "Satellite Number": 1,
        "Semi-Major Axis(m)": 7083131.272910544,
        "Time(s)": 120
    },
    {
        "Altitude(m)": 702787.511949519,
        "Argument of Periapsis(deg)": 0.007253708755694079,
        "Eccentricity": 0.0,
        "Inclination(deg)": 45.0,
        "Latitude(deg)": 16.56024806630059,
        "Longitude(deg)": -83.27848005883705,
        "Mean Anomaly(deg)": 23.708437970237792,
        "RAAN(deg)": -0.006847289033908821,
        "Satellite Name": "Constellation 1 1",
        "Satellite Number": 1,
        "Semi-Major Axis(m)": 7083131.272910544,
        "Time(s)": 121
    },
    {
        "Altitude(m)": 702789.5366898766,
        "Argument of Periapsis(deg)": 0.0073136567619394854,
        "Eccentricity": 0.0,
        "Inclination(deg)": 45.0,
        "Latitude(deg)": 16.601508136929358,
        "Longitude(deg)": -83.23593986470739,
        "Mean Anomaly(deg)": 23.76913911048769,
        "RAAN(deg)": -0.0069038781994783145,
        "Satellite Name": "Constellation 1 1",
        "Satellite Number": 1,
        "Semi-Major Axis(m)": 7083131.272910544,
        "Time(s)": 122
    },
    {
        "Altitude(m)": 702791.5777884539,
        "Argument of Periapsis(deg)": 0.0073736047681848904,
        "Eccentricity": 0.0,
        "Inclination(deg)": 45.0,
        "Latitude(deg)": 16.642757604407972,
        "Longitude(deg)": -83.1933797460751,
        "Mean Anomaly(deg)": 23.829840250737586,
        "RAAN(deg)": -0.0069604673650478085,
        "Satellite Name": "Constellation 1 1",
        "Satellite Number": 1,
        "Semi-Major Axis(m)": 7083131.272910544,
        "Time(s)": 123
    },
    {
        "Altitude(m)": 702793.6352186089,
        "Argument of Periapsis(deg)": 0.007433552774430298,
        "Eccentricity": 0.0,
        "Inclination(deg)": 45.0,
        "Latitude(deg)": 16.683996436404502,
        "Longitude(deg)": -83.1507996472587,
        "Mean Anomaly(deg)": 23.89054139098749,
        "RAAN(deg)": -0.007017056530617304,
        "Satellite Name": "Constellation 1 1",
        "Satellite Number": 1,
        "Semi-Major Axis(m)": 7083131.272910544,
        "Time(s)": 124
    },
    {
        "Altitude(m)": 702795.7089536324,
        "Argument of Periapsis(deg)": 0.007493500780675703,
        "Eccentricity": 0.0,
        "Inclination(deg)": 45.0,
        "Latitude(deg)": 16.72522460054789,
        "Longitude(deg)": -83.10819951254578,
        "Mean Anomaly(deg)": 23.951242531237387,
        "RAAN(deg)": -0.007073645696186799,
        "Satellite Name": "Constellation 1 1",
        "Satellite Number": 1,
        "Semi-Major Axis(m)": 7083131.272910544,
        "Time(s)": 125
    },
    {
        "Altitude(m)": 702797.7989667477,
        "Argument of Periapsis(deg)": 0.007553448786921108,
        "Eccentricity": 0.0,
        "Inclination(deg)": 45.0,
        "Latitude(deg)": 16.76644206442768,
        "Longitude(deg)": -83.06557945428973,
        "Mean Anomaly(deg)": 24.011943671487284,
        "RAAN(deg)": -0.007130234861756293,
        "Satellite Name": "Constellation 1 1",
        "Satellite Number": 1,
        "Semi-Major Axis(m)": 7083131.272910544,
        "Time(s)": 126
    },
    {
        "Altitude(m)": 702799.9052311097,
        "Argument of Periapsis(deg)": 0.007613396793166514,
        "Eccentricity": 0.0,
        "Inclination(deg)": 45.0,
        "Latitude(deg)": 16.80764879559403,
        "Longitude(deg)": -83.02293908052204,
        "Mean Anomaly(deg)": 24.072644811737188,
        "RAAN(deg)": -0.007186824027325788,
        "Satellite Name": "Constellation 1 1",
        "Satellite Number": 1,
        "Semi-Major Axis(m)": 7083131.272910544,
        "Time(s)": 127
    },
    {
        "Altitude(m)": 702802.0277198186,
        "Argument of Periapsis(deg)": 0.007673344799411918,
        "Eccentricity": 0.0,
        "Inclination(deg)": 45.0,
        "Latitude(deg)": 16.848844761557515,
        "Longitude(deg)": -82.98027850353392,
        "Mean Anomaly(deg)": 24.133345951987085,
        "RAAN(deg)": -0.007243413192895281,
        "Satellite Name": "Constellation 1 1",
        "Satellite Number": 1,
        "Semi-Major Axis(m)": 7083131.272910544,
        "Time(s)": 128
    },
    {
        "Altitude(m)": 702804.1664059052,
        "Argument of Periapsis(deg)": 0.007733292805657325,
        "Eccentricity": 0.0,
        "Inclination(deg)": 45.0,
        "Latitude(deg)": 16.890029929789055,
        "Longitude(deg)": -82.93759766748859,
        "Mean Anomaly(deg)": 24.194047092236982,
        "RAAN(deg)": -0.007300002358464777,
        "Satellite Name": "Constellation 1 1",
        "Satellite Number": 1,
        "Semi-Major Axis(m)": 7083131.272910544,
        "Time(s)": 129
    },
    {
        "Altitude(m)": 702806.3212623218,
        "Argument of Periapsis(deg)": 0.00779324081190273,
        "Eccentricity": 0.0,
        "Inclination(deg)": 45.0,
        "Latitude(deg)": 16.9312042677198,
        "Longitude(deg)": -82.89489651651814,
        "Mean Anomaly(deg)": 24.254748232486882,
        "RAAN(deg)": -0.00735659152403427,
        "Satellite Name": "Constellation 1 1",
        "Satellite Number": 1,
        "Semi-Major Axis(m)": 7083131.272910544,
        "Time(s)": 130
    },
    {
        "Altitude(m)": 702808.4922619817,
        "Argument of Periapsis(deg)": 0.007853188818148135,
        "Eccentricity": 0.0,
        "Inclination(deg)": 45.0,
        "Latitude(deg)": 16.972367742740953,
        "Longitude(deg)": -82.85217499472377,
        "Mean Anomaly(deg)": 24.315449372736783,
        "RAAN(deg)": -0.007413180689603763,
        "Satellite Name": "Constellation 1 1",
        "Satellite Number": 1,
        "Semi-Major Axis(m)": 7083131.272910544,
        "Time(s)": 131
    },
    {
        "Altitude(m)": 702810.6793777092,
        "Argument of Periapsis(deg)": 0.007913136824393542,
        "Eccentricity": 0.0,
        "Inclination(deg)": 45.0,
        "Latitude(deg)": 17.01352032220379,
        "Longitude(deg)": -82.80943304617537,
        "Mean Anomaly(deg)": 24.37615051298668,
        "RAAN(deg)": -0.00746976985517326,
        "Satellite Name": "Constellation 1 1",
        "Satellite Number": 1,
        "Semi-Major Axis(m)": 7083131.272910544,
        "Time(s)": 132
    }
]